OBJECT_NAME,OBJECT_ID,EPOCH,MEAN_MOTION,ECCENTRICITY,INCLINATION,RA_OF_ASC_NODE,ARG_OF_PERICENTER,MEAN_ANOMALY,EPHEMERIS_TYPE,CLASSIFICATION_TYPE,NORAD_CAT_ID,ELEMENT_SET_NO,REV_AT_EPOCH,BSTAR,MEAN_MOTION_DOT,MEAN_MOTION_DDOT
STARLINK-37736,2026-115R,2026-06-06T06:00:02.000160,15.80847924,.0000781,97.2836,174.1237,91.8414,131.2362,0,U,69226,999,293,-.65298071E-3,-.123637E-2,0
STARLINK-37737,2026-115S,2026-06-06T06:00:02.000160,15.80860337,.0000989,97.2833,174.1279,108.0071,126.4118,0,U,69227,999,295,-.75308167E-3,-.142349E-2,0
STARLINK-37618,2026-115T,2026-06-06T06:00:02.000160,15.80797430,.00014171,97.2834,174.1371,123.0402,132.1625,0,U,69228,999,293,-.15499715E-3,-.29705E-3,0
STARLINK-37679,2026-115U,2026-06-06T06:00:02.000160,15.80795118,.00013811,97.2832,174.1335,120.4828,126.3135,0,U,69229,999,293,-.81946159E-4,-.15795E-3,0
STARLINK-37746,2026-115V,2026-06-06T06:00:02.000160,15.80857320,.00012233,97.2833,174.1295,87.5944,150.4594,0,U,69230,999,293,-.76987409E-3,-.145454E-2,0
STARLINK-37557,2026-115W,2026-06-06T06:00:02.000160,15.80802362,.00013825,97.2838,174.1377,115.4319,140.8314,0,U,69231,999,293,-.21491474E-3,-.4109E-3,0
STARLINK-37745,2026-115X,2026-06-06T06:00:02.000160,15.80906605,.00012805,97.2832,174.1482,104.9636,174.2270,0,U,69232,999,293,-.11362443E-2,-.213439E-2,0
STARLINK-37739,2026-115Y,2026-06-06T06:00:02.000160,15.80854201,.00011663,97.2835,174.1356,99.2303,152.3351,0,U,69233,999,293,-.76740943E-3,-.144974E-2,0
STARLINK-37755,2026-115Z,2026-06-06T06:00:02.000160,15.75453770,.00018715,97.2844,174.1378,79.9064,174.7529,0,U,69234,999,293,-.37850412E-2,-.536857E-2,0
TJS-24,2026-116A,2026-06-06T04:58:38.898624,1.00272230,.00008694,0.0354,243.5211,175.2339,0.8478,0,U,69235,999,11,0,-.219E-5,0
STARLINK-37665,2026-117A,2026-06-06T06:00:02.000160,15.91734143,.0000647,53.1584,298.6048,62.4222,241.9931,0,U,69238,999,241,-.68011443E-2,-.225887E-1,.13642332E-2
STARLINK-37558,2026-117B,2026-06-06T06:00:02.000160,15.91874948,.00005198,53.1583,298.5937,63.6911,246.1182,0,U,69239,999,241,-.6957049E-2,-.2326771E-1,.14455081E-2
STARLINK-37680,2026-117C,2026-06-06T06:00:02.000160,15.92145646,.00005977,53.1584,298.5815,58.6510,256.9948,0,U,69240,999,240,-.67928924E-2,-.2304261E-1,.14229873E-2
STARLINK-37742,2026-117D,2026-06-06T06:00:02.000160,15.92585907,.0000576,53.1584,298.5699,57.1329,264.0489,0,U,69241,999,241,-.64756597E-2,-.224824E-1,.13641534E-2
STARLINK-37718,2026-117E,2026-06-06T06:00:02.000160,15.92866705,.00004029,53.1584,298.5593,59.5856,266.6869,0,U,69242,999,240,-.6460619E-2,-.2275885E-1,.14004038E-2
STARLINK-37735,2026-117F,2026-06-06T06:00:02.000160,15.92708489,.00004103,53.1582,298.5521,60.9480,268.7949,0,U,69243,999,241,-.67271548E-2,-.2349433E-1,.14856539E-2
STARLINK-37757,2026-117G,2026-06-06T06:00:02.000160,15.93247219,.00004586,53.1581,298.5353,55.8875,281.7985,0,U,69244,999,241,-.63902212E-2,-.2296318E-1,.14302868E-2
STARLINK-37767,2026-117H,2026-06-06T06:00:02.000160,15.94171880,.00004771,53.1576,298.5030,69.3790,283.9655,0,U,69245,999,241,-.6089784E-2,-.2298128E-1,.144684E-2
STARLINK-35759,2026-117J,2026-06-06T06:00:02.000160,15.94237538,.00005721,53.1576,298.4952,62.8004,294.2343,0,U,69246,999,246,-.61220829E-2,-.2318215E-1,.14722284E-2
STARLINK-37238,2026-117K,2026-06-06T06:00:02.000160,15.95258915,.00005688,53.1576,298.4692,63.3934,305.9598,0,U,69247,999,241,-.55468483E-2,-.2219597E-1,.13700461E-2
STARLINK-37412,2026-117L,2026-06-06T06:00:02.000160,15.95995428,.00005543,53.1575,298.4457,53.7784,327.0940,0,U,69248,999,248,-.53194638E-2,-.2215284E-1,.13761185E-2
STARLINK-37398,2026-117M,2026-06-06T06:00:02.000160,15.95991317,.00005103,53.1572,298.4391,64.6617,319.1154,0,U,69249,999,248,-.5371507E-2,-.2236227E-1,.14010194E-2
STARLINK-37499,2026-117N,2026-06-06T06:00:02.000160,15.96237913,.00006407,53.1573,298.4291,60.1391,328.5886,0,U,69250,999,248,-.53474276E-2,-.2256129E-1,.14289293E-2
STARLINK-37489,2026-117P,2026-06-06T06:00:02.000160,15.96525689,.00005899,53.1574,298.4142,53.5522,342.2326,0,U,69251,999,248,-.52850582E-2,-.2265077E-1,.14445026E-2
STARLINK-37434,2026-117Q,2026-06-06T06:00:02.000160,15.97102754,.0000672,53.1570,298.3987,59.1621,343.8743,0,U,69252,999,241,-.49188491E-2,-.2176974E-1,.13476592E-2
STARLINK-37368,2026-117R,2026-06-06T06:00:02.000160,15.98422540,.00007148,53.1568,298.3627,52.3271,8.0882,0,U,69253,999,248,-.44051282E-2,-.2098927E-1,.12761022E-2
STARLINK-37517,2026-117S,2026-06-05T20:43:57.421920,16.00665951,.00008574,53.1570,300.3429,23.5974,336.5097,0,U,69254,999,118,-.15399082E-2,-.842962E-2,.24585616E-3
STARLINK-37378,2026-117T,2026-06-06T06:00:02.000160,15.98604304,.00005741,53.1569,298.3453,52.2968,16.5084,0,U,69255,999,240,-.44197464E-2,-.2127142E-1,.13116696E-2
