STARLINK-37736          
1 69226U 26115R   26157.25002315 -.00123637  00000+0 -65298-3 0  9995
2 69226  97.2836 174.1237 0000781  91.8414 131.2362 15.80847924  2930
STARLINK-37737          
1 69227U 26115S   26157.25002315 -.00142349  00000+0 -75308-3 0  9990
2 69227  97.2833 174.1279 0000989 108.0071 126.4118 15.80860337  2954
STARLINK-37618          
1 69228U 26115T   26157.25002315 -.00029705  00000+0 -15500-3 0  9999
2 69228  97.2834 174.1371 0001417 123.0402 132.1625 15.80797430  2939
STARLINK-37679          
1 69229U 26115U   26157.25002315 -.00015795  00000+0 -81946-4 0  9992
2 69229  97.2832 174.1335 0001381 120.4828 126.3135 15.80795118  2933
STARLINK-37746          
1 69230U 26115V   26157.25002315 -.00145454  00000+0 -76987-3 0  9998
2 69230  97.2833 174.1295 0001223  87.5944 150.4594 15.80857320  2939
STARLINK-37557          
1 69231U 26115W   26157.25002315 -.00041090  00000+0 -21491-3 0  9990
2 69231  97.2838 174.1377 0001382 115.4319 140.8314 15.80802362  2938
STARLINK-37745          
1 69232U 26115X   26157.25002315 -.00213439  00000+0 -11362-2 0  9994
2 69232  97.2832 174.1482 0001280 104.9636 174.2270 15.80906605  2939
STARLINK-37739          
1 69233U 26115Y   26157.25002315 -.00144974  00000+0 -76741-3 0  9995
2 69233  97.2835 174.1356 0001166  99.2303 152.3351 15.80854201  2934
STARLINK-37755          
1 69234U 26115Z   26157.25002315 -.00536857  00000+0 -37850-2 0  9998
2 69234  97.2844 174.1378 0001871  79.9064 174.7529 15.75453770  2936
TJS-24                  
1 69235U 26116A   26157.20739466 -.00000219  00000+0  00000+0 0  9990
2 69235   0.0354 243.5211 0000869 175.2339   0.8478  1.00272230   116
STARLINK-37665          
1 69238U 26117A   26157.25002315 -.02258870  13642-2 -68011-2 0  9994
2 69238  53.1584 298.6048 0000647  62.4222 241.9931 15.91734143  2412
STARLINK-37558          
1 69239U 26117B   26157.25002315 -.02326771  14455-2 -69570-2 0  9995
2 69239  53.1583 298.5937 0000519  63.6911 246.1182 15.91874948  2417
STARLINK-37680          
1 69240U 26117C   26157.25002315 -.02304261  14230-2 -67929-2 0  9994
2 69240  53.1584 298.5815 0000597  58.6510 256.9948 15.92145646  2405
STARLINK-37742          
1 69241U 26117D   26157.25002315 -.02248240  13642-2 -64757-2 0  9991
2 69241  53.1584 298.5699 0000576  57.1329 264.0489 15.92585907  2414
STARLINK-37718          
1 69242U 26117E   26157.25002315 -.02275885  14004-2 -64606-2 0  9993
2 69242  53.1584 298.5593 0000402  59.5856 266.6869 15.92866705  2404
STARLINK-37735          
1 69243U 26117F   26157.25002315 -.02349433  14857-2 -67272-2 0  9993
2 69243  53.1582 298.5521 0000410  60.9480 268.7949 15.92708489  2419
STARLINK-37757          
1 69244U 26117G   26157.25002315 -.02296318  14303-2 -63902-2 0  9999
2 69244  53.1581 298.5353 0000458  55.8875 281.7985 15.93247219  2410
STARLINK-37767          
1 69245U 26117H   26157.25002315 -.02298128  14468-2 -60898-2 0  9994
2 69245  53.1576 298.5030 0000477  69.3790 283.9655 15.94171880  2413
STARLINK-35759          
1 69246U 26117J   26157.25002315 -.02318215  14722-2 -61221-2 0  9999
2 69246  53.1576 298.4952 0000572  62.8004 294.2343 15.94237538  2465
STARLINK-37238          
1 69247U 26117K   26157.25002315 -.02219597  13700-2 -55468-2 0  9994
2 69247  53.1576 298.4692 0000568  63.3934 305.9598 15.95258915  2410
STARLINK-37412          
1 69248U 26117L   26157.25002315 -.02215284  13761-2 -53195-2 0  9996
2 69248  53.1575 298.4457 0000554  53.7784 327.0940 15.95995428  2480
STARLINK-37398          
1 69249U 26117M   26157.25002315 -.02236227  14010-2 -53715-2 0  9993
2 69249  53.1572 298.4391 0000510  64.6617 319.1154 15.95991317  2485
STARLINK-37499          
1 69250U 26117N   26157.25002315 -.02256129  14289-2 -53474-2 0  9998
2 69250  53.1573 298.4291 0000640  60.1391 328.5886 15.96237913  2483
STARLINK-37489          
1 69251U 26117P   26157.25002315 -.02265077  14445-2 -52851-2 0  9993
2 69251  53.1574 298.4142 0000589  53.5522 342.2326 15.96525689  2486
STARLINK-37434          
1 69252U 26117Q   26157.25002315 -.02176974  13477-2 -49188-2 0  9994
2 69252  53.1570 298.3987 0000672  59.1621 343.8743 15.97102754  2412
STARLINK-37368          
1 69253U 26117R   26157.25002315 -.02098927  12761-2 -44051-2 0  9995
2 69253  53.1568 298.3627 0000714  52.3271   8.0882 15.98422540  2484
STARLINK-37517          
1 69254U 26117S   26156.86385905 -.00842962  24586-3 -15399-2 0  9997
2 69254  53.1570 300.3429 0000857  23.5974 336.5097 16.00665951  1182
STARLINK-37378          
1 69255U 26117T   26157.25002315 -.02127142  13117-2 -44197-2 0  9996
2 69255  53.1569 298.3453 0000574  52.2968  16.5084 15.98604304  2400
